IRIDIUM 154             
1 43574U 18061F   26197.32507475  .00000055  00000+0  12485-4 0  9990
2 43574  86.3940  44.6187 0002305  90.4541 269.6919 14.34217536417581
IRIDIUM 163             
1 43575U 18061G   26197.51535319  .00000027  00000+0  26372-5 0  9990
2 43575  86.3935  44.4534 0002103  86.1377 274.0059 14.34217270417585
IRIDIUM 156             
1 43576U 18061H   26197.07137109  .00000056  00000+0  13054-4 0  9991
2 43576  86.3937  44.6465 0002109  92.7768 267.3669 14.34217799417517
IRIDIUM 164             
1 43577U 18061J   26197.54072360  .00000127  00000+0  38443-4 0  9999
2 43577  86.3938  44.4910 0002323  89.2418 270.9044 14.34218573417623
IRIDIUM 159             
1 43578U 18061K   26197.50901001  .00000042  00000+0  80694-5 0  9991
2 43578  86.3935  44.4405 0002130  85.7202 274.4238 14.34217532417581
IRIDIUM 180             
1 43922U 19002A   26197.43873800  .00000107  00000+0  31162-4 0  9994
2 43922  86.3993 341.3694 0002166  91.4734 268.6710 14.34217682393185
IRIDIUM 176             
1 43923U 19002B   26197.45318428  .00000372  00000+0  55155-4 0  9999
2 43923  86.6113 341.3027 0002337  90.3321 269.8164 14.72249935403550
IRIDIUM 168             
1 43924U 19002C   26197.50216428  .00000005  00000+0 -51329-5 0  9997
2 43924  86.3990 341.4210 0002082  90.4943 269.6492 14.34216748393176
IRIDIUM 173             
1 43925U 19002D   26197.62901586 -.00000070  00000+0 -32072-4 0  9993
2 43925  86.3987 341.2559 0002028  92.7467 267.3961 14.34217647393178
IRIDIUM 169             
1 43926U 19002E   26197.46562021  .00000048  00000+0  91362-5 0  9994
2 43926  86.4222  12.9486 0001940 104.3713 255.7700 14.38613426394430
IRIDIUM 172             
1 43927U 19002F   26197.48313678  .00000030  00000+0  36412-5 0  9995
2 43927  86.3991 341.3243 0002181  91.1165 269.0281 14.34217607393163
IRIDIUM 175             
1 43928U 19002G   26197.45725382  .00000173  00000+0  45176-4 0  9996
2 43928  86.4513 278.2868 0005375 112.9980 247.1789 14.43627622403200
IRIDIUM 171             
1 43929U 19002H   26197.46410839  .00000044  00000+0  87936-5 0  9994
2 43929  86.4001 341.6417 0002244  95.0348 265.1104 14.34217776393157
IRIDIUM 170             
1 43930U 19002J   26197.45935358  .00000377  00000+0  55875-4 0  9998
2 43930  86.6112 341.3023 0002249  86.8609 273.2866 14.72250571403561
IRIDIUM 167             
1 43931U 19002K   26197.45776570  .00000031  00000+0  39377-5 0  9995
2 43931  86.3993 341.3578 0002321  98.4094 261.7365 14.34217737393153
IRIDIUM 181             
1 56726U 23068S   26196.53149983  .00000172  00000+0  45155-4 0  9994
2 56726  86.4474  44.9372 0002412  83.4871 276.6605 14.43312397166529
IRIDIUM 177             
1 56727U 23068T   26197.59685301  .00000620  00000+0  78420-4 0  9990
2 56727  86.1986 314.8288 0002194  96.2807 263.8664 14.80025350170718
IRIDIUM 174             
1 56728U 23068U   26197.44690315  .00000384  00000+0  56955-4 0  9992
2 56728  86.6120 341.4578 0001983  88.7147 271.4297 14.72259157170329
IRIDIUM 178             
1 56729U 23068V   26196.90974237  .00000182  00000+0  20564-4 0  9994
2 56729  86.6536  13.3547 0002309  90.9107 269.2379 14.80026522170611
IRIDIUM 179             
1 56730U 23068W   26196.02544386  .00000137  00000+0  14651-4 0  9997
2 56730  86.6767  22.7863 0002321  93.3552 266.7935 14.80033495170481
