OBJECT_NAME,OBJECT_ID,EPOCH,MEAN_MOTION,ECCENTRICITY,INCLINATION,RA_OF_ASC_NODE,ARG_OF_PERICENTER,MEAN_ANOMALY,EPHEMERIS_TYPE,CLASSIFICATION_TYPE,NORAD_CAT_ID,ELEMENT_SET_NO,REV_AT_EPOCH,BSTAR,MEAN_MOTION_DOT,MEAN_MOTION_DDOT
IRIDIUM 154,2018-061F,2026-07-16T07:48:06.458400,14.34217536,.00023057,86.3940,44.6187,90.4541,269.6919,0,U,43574,999,41758,.12484629E-4,.55E-6,0
IRIDIUM 163,2018-061G,2026-07-16T12:22:06.515616,14.34217270,.00021037,86.3935,44.4534,86.1377,274.0059,0,U,43575,999,41758,.2637209E-5,.27E-6,0
IRIDIUM 156,2018-061H,2026-07-16T01:42:46.462176,14.34217799,.00021096,86.3937,44.6465,92.7768,267.3669,0,U,43576,999,41751,.13054454E-4,.56E-6,0
IRIDIUM 164,2018-061J,2026-07-16T12:58:38.519040,14.34218573,.00023236,86.3938,44.4910,89.2418,270.9044,0,U,43577,999,41762,.38442743E-4,.127E-5,0
IRIDIUM 159,2018-061K,2026-07-16T12:12:58.464864,14.34217532,.000213,86.3935,44.4405,85.7202,274.4238,0,U,43578,999,41758,.8069401E-5,.42E-6,0
IRIDIUM 180,2019-002A,2026-07-16T10:31:46.963200,14.34217682,.00021669,86.3993,341.3694,91.4734,268.6710,0,U,43922,999,39318,.31161624E-4,.107E-5,0
IRIDIUM 176,2019-002B,2026-07-16T10:52:35.121792,14.72249935,.00023372,86.6113,341.3027,90.3321,269.8164,0,U,43923,999,40355,.55154647E-4,.372E-5,0
IRIDIUM 168,2019-002C,2026-07-16T12:03:06.993792,14.34216748,.00020822,86.3990,341.4210,90.4943,269.6492,0,U,43924,999,39317,-.5132948E-5,.5E-7,0
IRIDIUM 173,2019-002D,2026-07-16T15:05:46.970304,14.34217647,.0002028,86.3987,341.2559,92.7467,267.3961,0,U,43925,999,39317,-.32072362E-4,-.7E-6,0
IRIDIUM 169,2019-002E,2026-07-16T11:10:29.586144,14.38613426,.00019404,86.4222,12.9486,104.3713,255.7700,0,U,43926,999,39443,.9136167E-5,.48E-6,0
IRIDIUM 172,2019-002F,2026-07-16T11:35:43.017792,14.34217607,.00021813,86.3991,341.3243,91.1165,269.0281,0,U,43927,999,39316,.3641214E-5,.3E-6,0
IRIDIUM 175,2019-002G,2026-07-16T10:58:26.730048,14.43627622,.00053759,86.4513,278.2868,112.9980,247.1789,0,U,43928,999,40320,.45176492E-4,.173E-5,0
IRIDIUM 171,2019-002H,2026-07-16T11:08:18.964896,14.34217776,.00022445,86.4001,341.6417,95.0348,265.1104,0,U,43929,999,39315,.8793636E-5,.44E-6,0
IRIDIUM 170,2019-002J,2026-07-16T11:01:28.149312,14.72250571,.00022499,86.6112,341.3023,86.8609,273.2866,0,U,43930,999,40356,.55875237E-4,.377E-5,0
IRIDIUM 167,2019-002K,2026-07-16T10:59:10.956480,14.34217737,.00023212,86.3993,341.3578,98.4094,261.7365,0,U,43931,999,39315,.3937673E-5,.31E-6,0
IRIDIUM 181,2023-068S,2026-07-15T12:45:21.585312,14.43312397,.00024121,86.4474,44.9372,83.4871,276.6605,0,U,56726,999,16652,.45155381E-4,.172E-5,0
IRIDIUM 177,2023-068T,2026-07-16T14:19:28.100064,14.80025350,.00021947,86.1986,314.8288,96.2807,263.8664,0,U,56727,999,17071,.78419732E-4,.62E-5,0
IRIDIUM 174,2023-068U,2026-07-16T10:43:32.432160,14.72259157,.00019832,86.6120,341.4578,88.7147,271.4297,0,U,56728,999,17032,.56954745E-4,.384E-5,0
IRIDIUM 178,2023-068V,2026-07-15T21:50:01.740768,14.80026522,.0002309,86.6536,13.3547,90.9107,269.2379,0,U,56729,999,17061,.20564E-4,.182E-5,0
IRIDIUM 179,2023-068W,2026-07-15T00:36:38.349504,14.80033495,.00023212,86.6767,22.7863,93.3552,266.7935,0,U,56730,999,17048,.14650918E-4,.137E-5,0
